[{"OBJECT_NAME":"ONEWEB-0425","OBJECT_ID":"2022-012G","EPOCH":"2026-03-09T22:03:40.551840","MEAN_MOTION":13.10374846,"ECCENTRICITY":0.0001593,"INCLINATION":87.8784,"RA_OF_ASC_NODE":56.0277,"ARG_OF_PERICENTER":76.7976,"MEAN_ANOMALY":283.3329,"EPHEMERIS_TYPE":0,"CLASSIFICATION_TYPE":"U","NORAD_CAT_ID":51628,"ELEMENT_SET_NO":999,"REV_AT_EPOCH":19632,"BSTAR":-0.0016151708,"MEAN_MOTION_DOT":-5.51e-6,"MEAN_MOTION_DDOT":0},{"OBJECT_NAME":"COSMOS 397 DEB","OBJECT_ID":"1971-015Q","EPOCH":"2026-03-09T09:55:46.248672","MEAN_MOTION":13.29121432,"ECCENTRICITY":0.07989519,"INCLINATION":65.7091,"RA_OF_ASC_NODE":48.0294,"ARG_OF_PERICENTER":310.7715,"MEAN_ANOMALY":42.6567,"EPHEMERIS_TYPE":0,"CLASSIFICATION_TYPE":"U","NORAD_CAT_ID":5088,"ELEMENT_SET_NO":999,"REV_AT_EPOCH":61373,"BSTAR":0.0012619219,"MEAN_MOTION_DOT":3.538e-5,"MEAN_MOTION_DDOT":0}]
